ONEWEB-0431             
1 51630U 22012J   24039.50052421 -.00000476  00000+0 -13988-2 0  9998
2 51630  87.8916 207.0426 0001545  69.2302 290.8991 13.10375230 96754
ONEWEB-0434             
1 51631U 22012K   24039.55429836 -.00000346  00000+0 -10275-2 0  9994
2 51631  87.8915 207.0379 0001757  96.3397 263.7930 13.10370281 98037
ONEWEB-0435             
1 51632U 22012L   24039.48603808 -.00000565  00000+0 -16550-2 0  9995
2 51632  87.8919 207.0417 0001926  89.5752 270.5596 13.10371316 96720
ONEWEB-0436             
1 51633U 22012M   24039.84343261  .00000025  00000+0  30528-4 0  9992
2 51633  87.9241 176.7616 0001814  99.6477 260.4860 13.17649267101803
ONEWEB-0438             
1 51634U 22012N   24039.46980869  .00000018  00000+0  16601-4 0  9990
2 51634  87.8916 207.0455 0001574 105.9101 254.2200 13.10369873 96750
ONEWEB-0439             
1 51635U 22012P   24039.54941335 -.00000138  00000+0 -43140-3 0  9997
2 51635  87.8917 207.0135 0001503  95.7257 264.4041 13.10369594 96742
ONEWEB-0442             
1 51636U 22012Q   24039.83551833 -.00000003  00000+0 -39739-4 0  9991
2 51636  87.9245 176.7934 0001088 135.2510 224.8710 13.17645348101793
ONEWEB-0443             
1 51637U 22012R   24039.77857052 -.00000088  00000+0 -26093-3 0  9998
2 51637  87.9247 176.8100 0002146 104.3612 255.7758 13.17648442101836
